EUTELSAT 21B            
1 38992U 12062B   26004.32104453  .00000131  00000+0  00000+0 0  9999
2 38992   0.0662  12.1765 0003001 275.0259 313.8912  1.00269981 48187
EUTELSAT 70B            
1 39020U 12069A   26004.51969358 -.00000043  00000+0  00000+0 0  9996
2 39020   0.0619  11.7964 0003869 252.1444  97.7672  1.00271704 47863
EUTELSAT 117 WEST A     
1 39122U 13012A   26004.43631193 -.00000012  00000+0  00000+0 0  9998
2 39122   0.0174  40.7778 0003091 249.1266 214.3976  1.00270526 46798
EUTELSAT 7B             
1 39163U 13022A   26004.38942498  .00000048  00000+0  00000+0 0  9999
2 39163   0.0652 356.2445 0005352 329.4096 285.5178  1.00270497 46303
EXPRESS-AT1             
1 39612U 14010A   26004.60976218  .00000000  00000+0  00000+0 0  9996
2 39612   0.0189  32.0558 0000189 321.9086  25.7754  1.00272671 43172
EXPRESS-AT2             
1 39613U 14010B   26004.62983986  .00000000  00000+0  00000+0 0  9999
2 39613   0.0232  40.3085 0001646 246.4417 184.0828  1.00267709 42869
EUTELSAT 3B             
1 39773U 14030A   26004.38873163  .00000021  00000+0  00000+0 0  9999
2 39773   0.0625  15.7665 0004150 228.3179   2.9409  1.00272172 42424
EUTELSAT 115 WEST B     
1 40425U 15010B   26004.43674528 -.00000024  00000+0  00000+0 0  9998
2 40425   0.0064 194.7360 0000313 257.2114  54.4193  1.00269934 39750
